{
  "B": [
    {
      "phoneticize": "Beijing",
      "name": "北京",
      "zip": "010"
    },
    {
      "phoneticize": "Baicheng",
      "name": "白城",
      "zip": "0436"
    },
    {
      "phoneticize": "Baise",
      "name": "百色",
      "zip": "0776"
    },
    {
      "phoneticize": "Baishan",
      "name": "白山",
      "zip": "0439"
    },
    {
      "phoneticize": "Baiyin",
      "name": "白银",
      "zip": "0943"
    },
    {
      "phoneticize": "Bangbu",
      "name": "蚌埠",
      "zip": "0552"
    },
    {
      "phoneticize": "Baoding",
      "name": "保定",
      "zip": "0312"
    },
    {
      "phoneticize": "Baoji",
      "name": "宝鸡",
      "zip": "0917"
    },
    {
      "phoneticize": "Baoshan",
      "name": "保山",
      "zip": "0875"
    },
    {
      "phoneticize": "Baotou",
      "name": "包头",
      "zip": "0472"
    },
    {
      "phoneticize": "Bayannaoer",
      "name": "巴彦淖尔",
      "zip": "0478"
    },
    {
      "phoneticize": "Bayinguoleng",
      "name": "巴音郭楞",
      "zip": "0996"
    },
    {
      "phoneticize": "Bazhong",
      "name": "巴中",
      "zip": "0827"
    },
    {
      "phoneticize": "Beihai",
      "name": "北海",
      "zip": "0779"
    },
    {
      "phoneticize": "Benxi",
      "name": "本溪",
      "zip": "0414"
    },
    {
      "phoneticize": "Bijie",
      "name": "毕节",
      "zip": "0857"
    },
    {
      "phoneticize": "Binzhou",
      "name": "滨州",
      "zip": "0543"
    },
    {
      "phoneticize": "Boertala",
      "name": "博尔塔拉",
      "zip": "0909"
    },
    {
      "phoneticize": "Bozhou",
      "name": "亳州",
      "zip": "0558"
    },
    {
      "phoneticize": "Baoying",
      "name": "宝应",
      "zip": "0514"
    },
    {
      "phoneticize": "Bayan",
      "name": "巴彦",
      "zip": "0451"
    },
    {
      "phoneticize": "Binhai",
      "name": "滨海",
      "zip": "0515"
    },
    {
      "phoneticize": "Binxian",
      "name": "宾县",
      "zip": "0451"
    },
    {
      "phoneticize": "Binyang",
      "name": "宾阳",
      "zip": "0771"
    },
    {
      "phoneticize": "Bishan",
      "name": "璧山",
      "zip": "023"
    },
    {
      "phoneticize": "Boai",
      "name": "博爱",
      "zip": "0391"
    },
    {
      "phoneticize": "Boluo",
      "name": "博罗",
      "zip": "0752"
    },
    {
      "phoneticize": "Boxing",
      "name": "博兴",
      "zip": "0543"
    }
  ],
  "C": [
    {
      "phoneticize": "Chongqing",
      "name": "重庆",
      "zip": "023"
    },
    {
      "phoneticize": "Changchun",
      "name": "长春",
      "zip": "0431"
    },
    {
      "phoneticize": "Changsha",
      "name": "长沙",
      "zip": "0731"
    },
    {
      "phoneticize": "Changzhou",
      "name": "常州",
      "zip": "0519"
    },
    {
      "phoneticize": "Chengdu",
      "name": "成都",
      "zip": "028"
    },
    {
      "phoneticize": "Cangzhou",
      "name": "沧州",
      "zip": "0317"
    },
    {
      "phoneticize": "Changde",
      "name": "常德",
      "zip": "0736"
    },
    {
      "phoneticize": "Changdu",
      "name": "昌都",
      "zip": "0895"
    },
    {
      "phoneticize": "Changji",
      "name": "昌吉",
      "zip": "0997"
    },
    {
      "phoneticize": "Changzhi",
      "name": "长治",
      "zip": "0355"
    },
    {
      "phoneticize": "Chaohu",
      "name": "巢湖",
      "zip": "0565"
    },
    {
      "phoneticize": "Chaoyang",
      "name": "朝阳",
      "zip": "0421"
    },
    {
      "phoneticize": "Chaozhou",
      "name": "潮州",
      "zip": "0768"
    },
    {
      "phoneticize": "Chengde",
      "name": "承德",
      "zip": "0314"
    },
    {
      "phoneticize": "Chenzhou",
      "name": "郴州",
      "zip": "0735"
    },
    {
      "phoneticize": "Chifeng",
      "name": "赤峰",
      "zip": "0476"
    },
    {
      "phoneticize": "Chizhou",
      "name": "池州",
      "zip": "0566"
    },
    {
      "phoneticize": "Chongzuo",
      "name": "崇左",
      "zip": "0771"
    },
    {
      "phoneticize": "Chuxiong",
      "name": "楚雄",
      "zip": "0875"
    },
    {
      "phoneticize": "Chuzhou",
      "name": "滁州",
      "zip": "0550"
    },
    {
      "phoneticize": "Cangnan",
      "name": "苍南",
      "zip": "0577"
    },
    {
      "phoneticize": "Cangshan",
      "name": "苍山",
      "zip": "0539"
    },
    {
      "phoneticize": "Caoxian",
      "name": "曹县",
      "zip": "0530"
    },
    {
      "phoneticize": "Changdao",
      "name": "长岛",
      "zip": "0535"
    },
    {
      "phoneticize": "Changfeng",
      "name": "长丰",
      "zip": "0551"
    },
    {
      "phoneticize": "Changhai",
      "name": "长海",
      "zip": "0411"
    },
    {
      "phoneticize": "Changle",
      "name": "长乐",
      "zip": "0591"
    },
    {
      "phoneticize": "Changle",
      "name": "昌乐",
      "zip": "0536"
    },
    {
      "phoneticize": "Changshan",
      "name": "常山",
      "zip": "0570"
    },
    {
      "phoneticize": "Changshu",
      "name": "常熟",
      "zip": "0512"
    },
    {
      "phoneticize": "Changtai",
      "name": "长泰",
      "zip": "0596"
    },
    {
      "phoneticize": "Changting",
      "name": "长汀",
      "zip": "0597"
    },
    {
      "phoneticize": "Changxing",
      "name": "长兴",
      "zip": "0572"
    },
    {
      "phoneticize": "Changyi",
      "name": "昌邑",
      "zip": "0536"
    },
    {
      "phoneticize": "Chaoan",
      "name": "潮安",
      "zip": "0768"
    },
    {
      "phoneticize": "Chenggong",
      "name": "呈贡",
      "zip": "0871"
    },
    {
      "phoneticize": "Chengkou",
      "name": "城口",
      "zip": "023"
    },
    {
      "phoneticize": "Chengwu",
      "name": "成武",
      "zip": "0530"
    },
    {
      "phoneticize": "Chiping",
      "name": "茌平",
      "zip": "0635"
    },
    {
      "phoneticize": "Chongren",
      "name": "崇仁",
      "zip": "0794"
    },
    {
      "phoneticize": "Chongyi",
      "name": "崇义",
      "zip": "0797"
    },
    {
      "phoneticize": "Chongzhou",
      "name": "崇州",
      "zip": "028"
    },
    {
      "phoneticize": "Chunan",
      "name": "淳安",
      "zip": "0571"
    },
    {
      "phoneticize": "Cixi",
      "name": "慈溪",
      "zip": "0574"
    },
    {
      "phoneticize": "Conghua",
      "name": "从化",
      "zip": "020"
    },
    {
      "phoneticize": "Congyang",
      "name": "枞阳",
      "zip": "0556"
    }
  ],
  "S": [
    {
      "phoneticize": "Shanghai",
      "name": "上海",
      "zip": "021"
    },
    {
      "phoneticize": "Shenyang",
      "name": "沈阳",
      "zip": "024"
    },
    {
      "phoneticize": "Shenzhen",
      "name": "深圳",
      "zip": "0755"
    },
    {
      "phoneticize": "Shijiazhuang",
      "name": "石家庄",
      "zip": "0311"
    },
    {
      "phoneticize": "Suzhou",
      "name": "苏州",
      "zip": "0512"
    },
    {
      "phoneticize": "Sanmenxia",
      "name": "三门峡",
      "zip": "0398"
    },
    {
      "phoneticize": "Sanming",
      "name": "三明",
      "zip": "0598"
    },
    {
      "phoneticize": "Sanya",
      "name": "三亚",
      "zip": "0899"
    },
    {
      "phoneticize": "Shangluo",
      "name": "商洛",
      "zip": "0914"
    },
    {
      "phoneticize": "Shangqiu",
      "name": "商丘",
      "zip": "0370"
    },
    {
      "phoneticize": "Shangrao",
      "name": "上饶",
      "zip": "0793"
    },
    {
      "phoneticize": "Shannan",
      "name": "山南",
      "zip": "0893"
    },
    {
      "phoneticize": "Shantou",
      "name": "汕头",
      "zip": "0754"
    },
    {
      "phoneticize": "Shanwei",
      "name": "汕尾",
      "zip": "0660"
    },
    {
      "phoneticize": "Shaoguan",
      "name": "韶关",
      "zip": "0751"
    },
    {
      "phoneticize": "Shaoxing",
      "name": "绍兴",
      "zip": "0575"
    },
    {
      "phoneticize": "Shaoyang",
      "name": "邵阳",
      "zip": "0739"
    },
    {
      "phoneticize": "Shiyan",
      "name": "十堰",
      "zip": "0719"
    },
    {
      "phoneticize": "Shizuishan",
      "name": "石嘴山",
      "zip": "0952"
    },
    {
      "phoneticize": "Shuangyashan",
      "name": "双鸭山",
      "zip": "0469"
    },
    {
      "phoneticize": "Shuozhou",
      "name": "朔州",
      "zip": "0349"
    },
    {
      "phoneticize": "Siping",
      "name": "四平",
      "zip": "0434"
    },
    {
      "phoneticize": "Songyuan",
      "name": "松原",
      "zip": "0438"
    },
    {
      "phoneticize": "Suihua",
      "name": "绥化",
      "zip": "0455"
    },
    {
      "phoneticize": "Suining",
      "name": "遂宁",
      "zip": "0825"
    },
    {
      "phoneticize": "Suizhou",
      "name": "随州",
      "zip": "0722"
    },
    {
      "phoneticize": "Suqian",
      "name": "宿迁",
      "zip": "0527"
    },
    {
      "phoneticize": "Suzhou",
      "name": "宿州",
      "zip": "0557"
    },
    {
      "phoneticize": "Sanjiang",
      "name": "三江",
      "zip": "0772"
    },
    {
      "phoneticize": "Sanmen",
      "name": "三门",
      "zip": "0576"
    },
    {
      "phoneticize": "Saoan",
      "name": "诏安",
      "zip": "0596"
    },
    {
      "phoneticize": "Shanggao",
      "name": "上高",
      "zip": "0795"
    },
    {
      "phoneticize": "Shanghang",
      "name": "上杭",
      "zip": "0597"
    },
    {
      "phoneticize": "Shanghe",
      "name": "商河",
      "zip": "0531"
    },
    {
      "phoneticize": "Shangli",
      "name": "上栗",
      "zip": "0799"
    },
    {
      "phoneticize": "Shanglin",
      "name": "上林",
      "zip": "0771"
    },
    {
      "phoneticize": "Shangrao",
      "name": "上饶",
      "zip": "0793"
    },
    {
      "phoneticize": "Shangyou",
      "name": "上犹",
      "zip": "0797"
    },
    {
      "phoneticize": "Shangyu",
      "name": "上虞",
      "zip": "0575"
    },
    {
      "phoneticize": "Shangzhi",
      "name": "尚志",
      "zip": "0451"
    },
    {
      "phoneticize": "Shaowu",
      "name": "邵武",
      "zip": "0599"
    },
    {
      "phoneticize": "Shaoxing",
      "name": "绍兴",
      "zip": "0575"
    },
    {
      "phoneticize": "Shaxian",
      "name": "沙县",
      "zip": "0598"
    },
    {
      "phoneticize": "Shengsi",
      "name": "嵊泗",
      "zip": "0580"
    },
    {
      "phoneticize": "Shengzhou",
      "name": "嵊州",
      "zip": "0575"
    },
    {
      "phoneticize": "Shenxian",
      "name": "莘县",
      "zip": "0635"
    },
    {
      "phoneticize": "Shenze",
      "name": "深泽",
      "zip": "0311"
    },
    {
      "phoneticize": "Shexian",
      "name": "歙县",
      "zip": "0559"
    },
    {
      "phoneticize": "Sheyang",
      "name": "射阳",
      "zip": "0515"
    },
    {
      "phoneticize": "Shicheng",
      "name": "石城",
      "zip": "0797"
    },
    {
      "phoneticize": "Shilin",
      "name": "石林",
      "zip": "0871"
    },
    {
      "phoneticize": "Shishi",
      "name": "石狮",
      "zip": "0595"
    },
    {
      "phoneticize": "Shitai",
      "name": "石台",
      "zip": "0566"
    },
    {
      "phoneticize": "Shixing",
      "name": "始兴",
      "zip": "0751"
    },
    {
      "phoneticize": "Shizhu",
      "name": "石柱",
      "zip": "023"
    },
    {
      "phoneticize": "Shouguang",
      "name": "寿光",
      "zip": "0536"
    },
    {
      "phoneticize": "Shouning",
      "name": "寿宁",
      "zip": "0593"
    },
    {
      "phoneticize": "Shouxian",
      "name": "寿县",
      "zip": "0564"
    },
    {
      "phoneticize": "Shuangcheng",
      "name": "双城",
      "zip": "0451"
    },
    {
      "phoneticize": "Shuangliu",
      "name": "双流",
      "zip": "028"
    },
    {
      "phoneticize": "Shucheng",
      "name": "舒城",
      "zip": "0564"
    },
    {
      "phoneticize": "Shulan",
      "name": "舒兰",
      "zip": "0423"
    },
    {
      "phoneticize": "Shunchang",
      "name": "顺昌",
      "zip": "0599"
    },
    {
      "phoneticize": "Shuyang",
      "name": "沭阳",
      "zip": "0527"
    },
    {
      "phoneticize": "Sihong",
      "name": "泗洪",
      "zip": "0527"
    },
    {
      "phoneticize": "Sihui",
      "name": "四会",
      "zip": "0758"
    },
    {
      "phoneticize": "Sishui",
      "name": "泗水",
      "zip": "0537"
    },
    {
      "phoneticize": "Sixian",
      "name": "泗县",
      "zip": "0557"
    },
    {
      "phoneticize": "Siyang",
      "name": "泗阳",
      "zip": "0527"
    },
    {
      "phoneticize": "Songming",
      "name": "嵩明",
      "zip": "0871"
    },
    {
      "phoneticize": "Songxi",
      "name": "松溪",
      "zip": "0599"
    },
    {
      "phoneticize": "Songxian",
      "name": "嵩县",
      "zip": "0379"
    },
    {
      "phoneticize": "Songyang",
      "name": "松阳",
      "zip": "0578"
    },
    {
      "phoneticize": "Suichang",
      "name": "遂昌",
      "zip": "0578"
    },
    {
      "phoneticize": "Suichuan",
      "name": "遂川",
      "zip": "0796"
    },
    {
      "phoneticize": "Suining",
      "name": "睢宁",
      "zip": "0516"
    },
    {
      "phoneticize": "Suixi",
      "name": "濉溪",
      "zip": "0561"
    },
    {
      "phoneticize": "Suixi",
      "name": "遂溪",
      "zip": "0759"
    },
    {
      "phoneticize": "Susong",
      "name": "宿松",
      "zip": "0556"
    },
    {
      "phoneticize": "Suyu",
      "name": "宿豫",
      "zip": "0527"
    }
  ],
  "T": [
    {
      "phoneticize": "Tianjin",
      "name": "天津",
      "zip": "022"
    },
    {
      "phoneticize": "Taizhou",
      "name": "台州",
      "zip": "0576"
    },
    {
      "phoneticize": "Tangshan",
      "name": "唐山",
      "zip": "0315"
    },
    {
      "phoneticize": "Tachengdi",
      "name": "塔城地",
      "zip": "0901"
    },
    {
      "phoneticize": "Taian",
      "name": "泰安",
      "zip": "0538"
    },
    {
      "phoneticize": "Taiyuan",
      "name": "太原",
      "zip": "0351"
    },
    {
      "phoneticize": "Taizhou",
      "name": "泰州",
      "zip": "0523"
    },
    {
      "phoneticize": "Tianshui",
      "name": "天水",
      "zip": "0938"
    },
    {
      "phoneticize": "Tieling",
      "name": "铁岭",
      "zip": "0410"
    },
    {
      "phoneticize": "Tongchuan",
      "name": "铜川",
      "zip": "0919"
    },
    {
      "phoneticize": "Tonghua",
      "name": "通化",
      "zip": "0435"
    },
    {
      "phoneticize": "Tongliao",
      "name": "通辽",
      "zip": "0475"
    },
    {
      "phoneticize": "Tongling",
      "name": "铜陵",
      "zip": "0562"
    },
    {
      "phoneticize": "Tongren",
      "name": "铜仁",
      "zip": "0856"
    },
    {
      "phoneticize": "Tulufan",
      "name": "吐鲁番",
      "zip": "0995"
    },
    {
      "phoneticize": "Taicang",
      "name": "太仓",
      "zip": "0512"
    },
    {
      "phoneticize": "Taihe",
      "name": "太和",
      "zip": "0558"
    },
    {
      "phoneticize": "Taihe",
      "name": "泰和",
      "zip": "0796"
    },
    {
      "phoneticize": "Taihu",
      "name": "太湖",
      "zip": "0556"
    },
    {
      "phoneticize": "Taining",
      "name": "泰宁",
      "zip": "0598"
    },
    {
      "phoneticize": "Taishan",
      "name": "台山",
      "zip": "0750"
    },
    {
      "phoneticize": "Taishun",
      "name": "泰顺",
      "zip": "0577"
    },
    {
      "phoneticize": "Taixing",
      "name": "泰兴",
      "zip": "0523"
    },
    {
      "phoneticize": "Tancheng",
      "name": "郯城",
      "zip": "0539"
    },
    {
      "phoneticize": "Tanghai",
      "name": "唐海",
      "zip": "0315"
    },
    {
      "phoneticize": "Tengzhou",
      "name": "滕州",
      "zip": "0623"
    },
    {
      "phoneticize": "Tianchang",
      "name": "天长",
      "zip": "0550"
    },
    {
      "phoneticize": "Tiantai",
      "name": "天台",
      "zip": "0576"
    },
    {
      "phoneticize": "Tongcheng",
      "name": "桐城",
      "zip": "0556"
    },
    {
      "phoneticize": "Tonggu",
      "name": "铜鼓",
      "zip": "0795"
    },
    {
      "phoneticize": "Tonghe",
      "name": "通河",
      "zip": "0451"
    },
    {
      "phoneticize": "Tongliang",
      "name": "铜梁",
      "zip": "023"
    },
    {
      "phoneticize": "Tongling",
      "name": "铜陵",
      "zip": "0562"
    },
    {
      "phoneticize": "Tonglu",
      "name": "桐庐",
      "zip": "0571"
    },
    {
      "phoneticize": "Tongnan",
      "name": "潼南",
      "zip": "023"
    },
    {
      "phoneticize": "Tongshan",
      "name": "铜山",
      "zip": "0516"
    },
    {
      "phoneticize": "Tongxiang",
      "name": "桐乡",
      "zip": "0573"
    },
    {
      "phoneticize": "Tongzhou",
      "name": "通州",
      "zip": "0513"
    }
  ],
  "D": [
    {
      "phoneticize": "Dalian",
      "name": "大连",
      "zip": "0411"
    },
    {
      "phoneticize": "Dongguan",
      "name": "东莞",
      "zip": "0769"
    },
    {
      "phoneticize": "Dali",
      "name": "大理",
      "zip": "0872"
    },
    {
      "phoneticize": "Dandong",
      "name": "丹东",
      "zip": "0415"
    },
    {
      "phoneticize": "Daqing",
      "name": "大庆",
      "zip": "0459"
    },
    {
      "phoneticize": "Datong",
      "name": "大同",
      "zip": "0352"
    },
    {
      "phoneticize": "Daxinganling",
      "name": "大兴安岭",
      "zip": "0457"
    },
    {
      "phoneticize": "Dazhou",
      "name": "达州",
      "zip": "0818"
    },
    {
      "phoneticize": "Dehong",
      "name": "德宏",
      "zip": "0692"
    },
    {
      "phoneticize": "Deyang",
      "name": "德阳",
      "zip": "0838"
    },
    {
      "phoneticize": "Dezhou",
      "name": "德州",
      "zip": "0534"
    },
    {
      "phoneticize": "Dingxi",
      "name": "定西",
      "zip": "0932"
    },
    {
      "phoneticize": "Diqing",
      "name": "迪庆",
      "zip": "0887"
    },
    {
      "phoneticize": "Dongying",
      "name": "东营",
      "zip": "0546"
    },
    {
      "phoneticize": "Dafeng",
      "name": "大丰",
      "zip": "0515"
    },
    {
      "phoneticize": "Daishan",
      "name": "岱山",
      "zip": "0580"
    },
    {
      "phoneticize": "Dangshan",
      "name": "砀山",
      "zip": "0557"
    },
    {
      "phoneticize": "Dangtu",
      "name": "当涂",
      "zip": "0555"
    },
    {
      "phoneticize": "Danxian",
      "name": "单县",
      "zip": "0530"
    },
    {
      "phoneticize": "Danyang",
      "name": "丹阳",
      "zip": "0511"
    },
    {
      "phoneticize": "Dapu",
      "name": "大埔",
      "zip": "0753"
    },
    {
      "phoneticize": "Datian",
      "name": "大田",
      "zip": "0598"
    },
    {
      "phoneticize": "Dayi",
      "name": "大邑",
      "zip": "028"
    },
    {
      "phoneticize": "Dayu",
      "name": "大余",
      "zip": "0797"
    },
    {
      "phoneticize": "Dazu",
      "name": "大足",
      "zip": "023"
    },
    {
      "phoneticize": "Dean",
      "name": "德安",
      "zip": "0792"
    },
    {
      "phoneticize": "Dehua",
      "name": "德化",
      "zip": "0595"
    },
    {
      "phoneticize": "Dehui",
      "name": "德惠",
      "zip": "0431"
    },
    {
      "phoneticize": "Dengfeng",
      "name": "登封",
      "zip": "0371"
    },
    {
      "phoneticize": "Deqing",
      "name": "德清",
      "zip": "0572"
    },
    {
      "phoneticize": "Deqing",
      "name": "德庆",
      "zip": "0758"
    },
    {
      "phoneticize": "Dexing",
      "name": "德兴",
      "zip": "0793"
    },
    {
      "phoneticize": "Dianbai",
      "name": "电白",
      "zip": "0668"
    },
    {
      "phoneticize": "Dianjiang",
      "name": "垫江",
      "zip": "023"
    },
    {
      "phoneticize": "Dingnan",
      "name": "定南",
      "zip": "0797"
    },
    {
      "phoneticize": "Dingtao",
      "name": "定陶",
      "zip": "0530"
    },
    {
      "phoneticize": "Dingyuan",
      "name": "定远",
      "zip": "0550"
    },
    {
      "phoneticize": "Donga",
      "name": "东阿",
      "zip": "0635"
    },
    {
      "phoneticize": "Donghai",
      "name": "东海",
      "zip": "0518"
    },
    {
      "phoneticize": "Dongming",
      "name": "东明",
      "zip": "0530"
    },
    {
      "phoneticize": "Dongping",
      "name": "东平",
      "zip": "0538"
    },
    {
      "phoneticize": "Dongshan",
      "name": "东山",
      "zip": "0596"
    },
    {
      "phoneticize": "Dongtai",
      "name": "东台",
      "zip": "0515"
    },
    {
      "phoneticize": "Dongtou",
      "name": "洞头",
      "zip": "0577"
    },
    {
      "phoneticize": "Dongxiang",
      "name": "东乡",
      "zip": "0794"
    },
    {
      "phoneticize": "Dongyang",
      "name": "东阳",
      "zip": "0579"
    },
    {
      "phoneticize": "Dongyuan",
      "name": "东源",
      "zip": "0762"
    },
    {
      "phoneticize": "Dongzhi",
      "name": "东至",
      "zip": "0566"
    },
    {
      "phoneticize": "Duchang",
      "name": "都昌",
      "zip": "0792"
    },
    {
      "phoneticize": "Dujiangyan",
      "name": "都江堰",
      "zip": "028"
    }
  ],
  "F": [
    {
      "phoneticize": "Foshan",
      "name": "佛山",
      "zip": "0757"
    },
    {
      "phoneticize": "Fuzhou",
      "name": "福州",
      "zip": "0591"
    },
    {
      "phoneticize": "Fangchenggang",
      "name": "防城港",
      "zip": "0770"
    },
    {
      "phoneticize": "Fushun",
      "name": "抚顺",
      "zip": "0413"
    },
    {
      "phoneticize": "Fuxin",
      "name": "阜新",
      "zip": "0418"
    },
    {
      "phoneticize": "Fuyang",
      "name": "阜阳",
      "zip": "0558"
    },
    {
      "phoneticize": "Fuzhou",
      "name": "抚州",
      "zip": "0794"
    },
    {
      "phoneticize": "Faku",
      "name": "法库",
      "zip": "024"
    },
    {
      "phoneticize": "Fanchang",
      "name": "繁昌",
      "zip": "0553"
    },
    {
      "phoneticize": "Fangzheng",
      "name": "方正",
      "zip": "0451"
    },
    {
      "phoneticize": "Feicheng",
      "name": "肥城",
      "zip": "0538"
    },
    {
      "phoneticize": "Feidong",
      "name": "肥东",
      "zip": "0551"
    },
    {
      "phoneticize": "Feixi",
      "name": "肥西",
      "zip": "0551"
    },
    {
      "phoneticize": "Feixian",
      "name": "费县",
      "zip": "0539"
    },
    {
      "phoneticize": "Fengcheng",
      "name": "丰城",
      "zip": "0795"
    },
    {
      "phoneticize": "Fengdu",
      "name": "丰都",
      "zip": "023"
    },
    {
      "phoneticize": "Fenghua",
      "name": "奉化",
      "zip": "0574"
    },
    {
      "phoneticize": "Fengjie",
      "name": "奉节",
      "zip": "023"
    },
    {
      "phoneticize": "Fengkai",
      "name": "封开",
      "zip": "0758"
    },
    {
      "phoneticize": "Fengshun",
      "name": "丰顺",
      "zip": "0753"
    },
    {
      "phoneticize": "Fengtai",
      "name": "凤台",
      "zip": "0554"
    },
    {
      "phoneticize": "Fengxian",
      "name": "丰县",
      "zip": "0516"
    },
    {
      "phoneticize": "Fengxin",
      "name": "奉新",
      "zip": "0795"
    },
    {
      "phoneticize": "Fengyang",
      "name": "凤阳",
      "zip": "0550"
    },
    {
      "phoneticize": "Fenyi",
      "name": "分宜",
      "zip": "0790"
    },
    {
      "phoneticize": "Fogang",
      "name": "佛冈",
      "zip": "0763"
    },
    {
      "phoneticize": "Fuan",
      "name": "福安",
      "zip": "0593"
    },
    {
      "phoneticize": "Fuding",
      "name": "福鼎",
      "zip": "0593"
    },
    {
      "phoneticize": "Fuliang",
      "name": "浮梁",
      "zip": "0798"
    },
    {
      "phoneticize": "Fumin",
      "name": "富民",
      "zip": "0871"
    },
    {
      "phoneticize": "Funan",
      "name": "阜南",
      "zip": "0558"
    },
    {
      "phoneticize": "Funing",
      "name": "阜宁",
      "zip": "0515"
    },
    {
      "phoneticize": "Fuqing",
      "name": "福清",
      "zip": "0591"
    },
    {
      "phoneticize": "Fuyang",
      "name": "富阳",
      "zip": "0571"
    }
  ],
  "G": [
    {
      "phoneticize": "Guangzhou",
      "name": "广州",
      "zip": "020"
    },
    {
      "phoneticize": "Guiyang",
      "name": "贵阳",
      "zip": "0851"
    },
    {
      "phoneticize": "Gannan",
      "name": "甘南",
      "zip": "0941"
    },
    {
      "phoneticize": "Ganzhou",
      "name": "赣州",
      "zip": "0797"
    },
    {
      "phoneticize": "Ganzi",
      "name": "甘孜",
      "zip": "0836"
    },
    {
      "phoneticize": "Guangan",
      "name": "广安",
      "zip": "0826"
    },
    {
      "phoneticize": "Guangyuan",
      "name": "广元",
      "zip": "0839"
    },
    {
      "phoneticize": "Guigang",
      "name": "贵港",
      "zip": "0775"
    },
    {
      "phoneticize": "Guilin",
      "name": "桂林",
      "zip": "0773"
    },
    {
      "phoneticize": "Guoluo",
      "name": "果洛",
      "zip": "0975"
    },
    {
      "phoneticize": "Guyuan",
      "name": "固原",
      "zip": "0954"
    },
    {
      "phoneticize": "Ganxian",
      "name": "赣县",
      "zip": "0797"
    },
    {
      "phoneticize": "Ganyu",
      "name": "赣榆",
      "zip": "0518"
    },
    {
      "phoneticize": "Gaoan",
      "name": "高安",
      "zip": "0795"
    },
    {
      "phoneticize": "Gaocheng",
      "name": "藁城",
      "zip": "0311"
    },
    {
      "phoneticize": "Gaochun",
      "name": "高淳",
      "zip": "025"
    },
    {
      "phoneticize": "Gaolan",
      "name": "皋兰",
      "zip": "0931"
    },
    {
      "phoneticize": "Gaoling",
      "name": "高陵",
      "zip": "029"
    },
    {
      "phoneticize": "Gaomi",
      "name": "高密",
      "zip": "0536"
    },
    {
      "phoneticize": "Gaoqing",
      "name": "高青",
      "zip": "0533"
    },
    {
      "phoneticize": "Gaotang",
      "name": "高唐",
      "zip": "0635"
    },
    {
      "phoneticize": "Gaoyao",
      "name": "高要",
      "zip": "0758"
    },
    {
      "phoneticize": "Gaoyi",
      "name": "高邑",
      "zip": "0311"
    },
    {
      "phoneticize": "Gaoyou",
      "name": "高邮",
      "zip": "0514"
    },
    {
      "phoneticize": "Gaozhou",
      "name": "高州",
      "zip": "0668"
    },
    {
      "phoneticize": "Gongyi",
      "name": "巩义",
      "zip": "0371"
    },
    {
      "phoneticize": "Guangchang",
      "name": "广昌",
      "zip": "0794"
    },
    {
      "phoneticize": "Guangde",
      "name": "广德",
      "zip": "0563"
    },
    {
      "phoneticize": "Guangfeng",
      "name": "广丰",
      "zip": "0793"
    },
    {
      "phoneticize": "Guangning",
      "name": "广宁",
      "zip": "0758"
    },
    {
      "phoneticize": "Guangrao",
      "name": "广饶",
      "zip": "0546"
    },
    {
      "phoneticize": "Guangze",
      "name": "光泽",
      "zip": "0599"
    },
    {
      "phoneticize": "Guannan",
      "name": "灌南",
      "zip": "0518"
    },
    {
      "phoneticize": "Guanxian",
      "name": "冠县",
      "zip": "0635"
    },
    {
      "phoneticize": "Guanyun",
      "name": "灌云",
      "zip": "0518"
    },
    {
      "phoneticize": "Guixi",
      "name": "贵溪",
      "zip": "0701"
    },
    {
      "phoneticize": "Gutian",
      "name": "古田",
      "zip": "0593"
    },
    {
      "phoneticize": "Guzhen",
      "name": "固镇",
      "zip": "0552"
    }
  ],
  "H": [
    {
      "phoneticize": "Haerbin",
      "name": "哈尔滨",
      "zip": "0451"
    },
    {
      "phoneticize": "Haikou",
      "name": "海口",
      "zip": "0898"
    },
    {
      "phoneticize": "Handan",
      "name": "邯郸",
      "zip": "0310"
    },
    {
      "phoneticize": "Hangzhou",
      "name": "杭州",
      "zip": "0571"
    },
    {
      "phoneticize": "Hefei",
      "name": "合肥",
      "zip": "0551"
    },
    {
      "phoneticize": "Huizhou",
      "name": "惠州",
      "zip": "0752"
    },
    {
      "phoneticize": "Haibei",
      "name": "海北",
      "zip": "0970"
    },
    {
      "phoneticize": "Haidong",
      "name": "海东",
      "zip": "0972"
    },
    {
      "phoneticize": "Hainan",
      "name": "海南",
      "zip": "0974"
    },
    {
      "phoneticize": "Haixi",
      "name": "海西",
      "zip": "0977"
    },
    {
      "phoneticize": "Hami",
      "name": "哈密",
      "zip": "0902"
    },
    {
      "phoneticize": "Hanzhong",
      "name": "汉中",
      "zip": "0916"
    },
    {
      "phoneticize": "Hebi",
      "name": "鹤壁",
      "zip": "0392"
    },
    {
      "phoneticize": "Hechi",
      "name": "河池",
      "zip": "0778"
    },
    {
      "phoneticize": "Hegang",
      "name": "鹤岗",
      "zip": "0468"
    },
    {
      "phoneticize": "Heihe",
      "name": "黑河",
      "zip": "0456"
    },
    {
      "phoneticize": "Hengshui",
      "name": "衡水",
      "zip": "0318"
    },
    {
      "phoneticize": "Hengyang",
      "name": "衡阳",
      "zip": "0734"
    },
    {
      "phoneticize": "Hetiandi",
      "name": "和田地",
      "zip": "0903"
    },
    {
      "phoneticize": "Heyuan",
      "name": "河源",
      "zip": "0762"
    },
    {
      "phoneticize": "Heze",
      "name": "菏泽",
      "zip": "0530"
    },
    {
      "phoneticize": "Hezhou",
      "name": "贺州",
      "zip": "0774"
    },
    {
      "phoneticize": "Honghe",
      "name": "红河",
      "zip": "0873"
    },
    {
      "phoneticize": "Huaian",
      "name": "淮安",
      "zip": "0517"
    },
    {
      "phoneticize": "Huaibei",
      "name": "淮北",
      "zip": "0561"
    },
    {
      "phoneticize": "Huaihua",
      "name": "怀化",
      "zip": "0745"
    },
    {
      "phoneticize": "Huainan",
      "name": "淮南",
      "zip": "0554"
    },
    {
      "phoneticize": "Huanggang",
      "name": "黄冈",
      "zip": "0713"
    },
    {
      "phoneticize": "Huangnan",
      "name": "黄南",
      "zip": "0973"
    },
    {
      "phoneticize": "Huangshan",
      "name": "黄山",
      "zip": "0559"
    },
    {
      "phoneticize": "Huangshi",
      "name": "黄石",
      "zip": "0714"
    },
    {
      "phoneticize": "Huhehaote",
      "name": "呼和浩特",
      "zip": "0471"
    },
    {
      "phoneticize": "Huludao",
      "name": "葫芦岛",
      "zip": "0429"
    },
    {
      "phoneticize": "Hulunbeier",
      "name": "呼伦贝尔",
      "zip": "0470"
    },
    {
      "phoneticize": "Huzhou",
      "name": "湖州",
      "zip": "0572"
    },
    {
      "phoneticize": "Haian",
      "name": "海安",
      "zip": "0513"
    },
    {
      "phoneticize": "Haifeng",
      "name": "海丰",
      "zip": "0660"
    },
    {
      "phoneticize": "Haimen",
      "name": "海门",
      "zip": "0513"
    },
    {
      "phoneticize": "Haining",
      "name": "海宁",
      "zip": "0573"
    },
    {
      "phoneticize": "Haiyan",
      "name": "海盐",
      "zip": "0573"
    },
    {
      "phoneticize": "Haiyang",
      "name": "海阳",
      "zip": "0535"
    },
    {
      "phoneticize": "Hanshan",
      "name": "含山",
      "zip": "0565"
    },
    {
      "phoneticize": "Hechuan",
      "name": "合川",
      "zip": "023"
    },
    {
      "phoneticize": "Hengfeng",
      "name": "横峰",
      "zip": "0793"
    },
    {
      "phoneticize": "Hengxian",
      "name": "横县",
      "zip": "0771"
    },
    {
      "phoneticize": "Heping",
      "name": "和平",
      "zip": "0762"
    },
    {
      "phoneticize": "Heshan",
      "name": "鹤山",
      "zip": "0750"
    },
    {
      "phoneticize": "Hexian",
      "name": "和县",
      "zip": "0565"
    },
    {
      "phoneticize": "Hongze",
      "name": "洪泽",
      "zip": "0517"
    },
    {
      "phoneticize": "Huaan",
      "name": "华安",
      "zip": "0596"
    },
    {
      "phoneticize": "Huadian",
      "name": "桦甸",
      "zip": "0423"
    },
    {
      "phoneticize": "Huaiji",
      "name": "怀集",
      "zip": "0758"
    },
    {
      "phoneticize": "Huaining",
      "name": "怀宁",
      "zip": "0556"
    },
    {
      "phoneticize": "Huaiyuan",
      "name": "怀远",
      "zip": "0552"
    },
    {
      "phoneticize": "Huantai",
      "name": "桓台",
      "zip": "0533"
    },
    {
      "phoneticize": "Huazhou",
      "name": "化州",
      "zip": "0668"
    },
    {
      "phoneticize": "Huian",
      "name": "惠安",
      "zip": "0595"
    },
    {
      "phoneticize": "Huichang",
      "name": "会昌",
      "zip": "0797"
    },
    {
      "phoneticize": "Huidong",
      "name": "惠东",
      "zip": "0752"
    },
    {
      "phoneticize": "Huilai",
      "name": "惠来",
      "zip": "0663"
    },
    {
      "phoneticize": "Huimin",
      "name": "惠民",
      "zip": "0543"
    },
    {
      "phoneticize": "Hukou",
      "name": "湖口",
      "zip": "0792"
    },
    {
      "phoneticize": "Hulan",
      "name": "呼兰",
      "zip": "0451"
    },
    {
      "phoneticize": "Huoqiu",
      "name": "霍邱",
      "zip": "0564"
    },
    {
      "phoneticize": "Huoshan",
      "name": "霍山",
      "zip": "0564"
    },
    {
      "phoneticize": "Huxian",
      "name": "户县",
      "zip": "029"
    }
  ],
  "J": [
    {
      "phoneticize": "Jiaozuo",
      "name": "焦作",
      "zip": "0391"
    },
    {
      "phoneticize": "Jiaxing",
      "name": "嘉兴",
      "zip": "0573"
    },
    {
      "phoneticize": "Jilin",
      "name": "吉林",
      "zip": "0423"
    },
    {
      "phoneticize": "Jinan",
      "name": "济南",
      "zip": "0531"
    },
    {
      "phoneticize": "Jiamusi",
      "name": "佳木斯",
      "zip": "0454"
    },
    {
      "phoneticize": "Jiangmen",
      "name": "江门",
      "zip": "0750"
    },
    {
      "phoneticize": "Jian",
      "name": "吉安",
      "zip": "0796"
    },
    {
      "phoneticize": "Jiayuguan",
      "name": "嘉峪关",
      "zip": "0937"
    },
    {
      "phoneticize": "Jieyang",
      "name": "揭阳",
      "zip": "0663"
    },
    {
      "phoneticize": "Jinchang",
      "name": "金昌",
      "zip": "0935"
    },
    {
      "phoneticize": "Jincheng",
      "name": "晋城",
      "zip": "0356"
    },
    {
      "phoneticize": "Jingdezhen",
      "name": "景德镇",
      "zip": "0798"
    },
    {
      "phoneticize": "Jingmen",
      "name": "荆门",
      "zip": "0724"
    },
    {
      "phoneticize": "Jingzhou",
      "name": "荆州",
      "zip": "0716"
    },
    {
      "phoneticize": "Jinhua",
      "name": "金华",
      "zip": "0579"
    },
    {
      "phoneticize": "Jining",
      "name": "济宁",
      "zip": "0537"
    },
    {
      "phoneticize": "Jinzhong",
      "name": "晋中",
      "zip": "0354"
    },
    {
      "phoneticize": "Jinzhou",
      "name": "锦州",
      "zip": "0416"
    },
    {
      "phoneticize": "Jiujiang",
      "name": "九江",
      "zip": "0792"
    },
    {
      "phoneticize": "Jiuquan",
      "name": "酒泉",
      "zip": "0937"
    },
    {
      "phoneticize": "Jixi",
      "name": "鸡西",
      "zip": "0467"
    },
    {
      "phoneticize": "Jiande",
      "name": "建德",
      "zip": "0571"
    },
    {
      "phoneticize": "Jiangdu",
      "name": "江都",
      "zip": "0514"
    },
    {
      "phoneticize": "Jiangjin",
      "name": "江津",
      "zip": "023"
    },
    {
      "phoneticize": "Jiangle",
      "name": "将乐",
      "zip": "0598"
    },
    {
      "phoneticize": "Jiangshan",
      "name": "江山",
      "zip": "0570"
    },
    {
      "phoneticize": "Jiangyan",
      "name": "姜堰",
      "zip": "0523"
    },
    {
      "phoneticize": "Jiangyin",
      "name": "江阴",
      "zip": "0510"
    },
    {
      "phoneticize": "Jianhu",
      "name": "建湖",
      "zip": "0515"
    },
    {
      "phoneticize": "Jianning",
      "name": "建宁",
      "zip": "0598"
    },
    {
      "phoneticize": "Jianou",
      "name": "建瓯",
      "zip": "0599"
    },
    {
      "phoneticize": "Jianyang",
      "name": "建阳",
      "zip": "0599"
    },
    {
      "phoneticize": "Jian",
      "name": "吉安",
      "zip": "0796"
    },
    {
      "phoneticize": "Jiaohe",
      "name": "蛟河",
      "zip": "0423"
    },
    {
      "phoneticize": "Jiaoling",
      "name": "蕉岭",
      "zip": "0753"
    },
    {
      "phoneticize": "Jiaonan",
      "name": "胶南",
      "zip": "0532"
    },
    {
      "phoneticize": "Jiaozhou",
      "name": "胶州",
      "zip": "0532"
    },
    {
      "phoneticize": "Jiashan",
      "name": "嘉善",
      "zip": "0573"
    },
    {
      "phoneticize": "Jiaxiang",
      "name": "嘉祥",
      "zip": "0537"
    },
    {
      "phoneticize": "Jiedong",
      "name": "揭东",
      "zip": "0663"
    },
    {
      "phoneticize": "Jieshou",
      "name": "界首",
      "zip": "0558"
    },
    {
      "phoneticize": "Jiexi",
      "name": "揭西",
      "zip": "0663"
    },
    {
      "phoneticize": "Jimo",
      "name": "即墨",
      "zip": "0532"
    },
    {
      "phoneticize": "Jingan",
      "name": "靖安",
      "zip": "0795"
    },
    {
      "phoneticize": "Jingde",
      "name": "旌德",
      "zip": "0563"
    },
    {
      "phoneticize": "Jinggangshan",
      "name": "井冈山",
      "zip": "0796"
    },
    {
      "phoneticize": "Jingjiang",
      "name": "靖江",
      "zip": "0523"
    },
    {
      "phoneticize": "Jingning",
      "name": "景宁",
      "zip": "0578"
    },
    {
      "phoneticize": "Jingxian",
      "name": "泾县",
      "zip": "0563"
    },
    {
      "phoneticize": "Jingxing",
      "name": "井陉",
      "zip": "0311"
    },
    {
      "phoneticize": "Jinhu",
      "name": "金湖",
      "zip": "0517"
    },
    {
      "phoneticize": "Jinjiang",
      "name": "晋江",
      "zip": "0595"
    },
    {
      "phoneticize": "Jinmen",
      "name": "金门",
      "zip": "0595"
    },
    {
      "phoneticize": "Jinning",
      "name": "晋宁",
      "zip": "0871"
    },
    {
      "phoneticize": "Jintan",
      "name": "金坛",
      "zip": "0519"
    },
    {
      "phoneticize": "Jintang",
      "name": "金堂",
      "zip": "028"
    },
    {
      "phoneticize": "Jinxian",
      "name": "进贤",
      "zip": "0791"
    },
    {
      "phoneticize": "Jinxi",
      "name": "金溪",
      "zip": "0794"
    },
    {
      "phoneticize": "Jinxiang",
      "name": "金乡",
      "zip": "0537"
    },
    {
      "phoneticize": "Jinyun",
      "name": "缙云",
      "zip": "0578"
    },
    {
      "phoneticize": "Jinzhai",
      "name": "金寨",
      "zip": "0564"
    },
    {
      "phoneticize": "Jinzhou",
      "name": "晋州",
      "zip": "0311"
    },
    {
      "phoneticize": "Jishui",
      "name": "吉水",
      "zip": "0796"
    },
    {
      "phoneticize": "Jiujiang",
      "name": "九江",
      "zip": "0792"
    },
    {
      "phoneticize": "Jiutai",
      "name": "九台",
      "zip": "0431"
    },
    {
      "phoneticize": "Jixi",
      "name": "绩溪",
      "zip": "0563"
    },
    {
      "phoneticize": "Jiyang",
      "name": "济阳",
      "zip": "0531"
    },
    {
      "phoneticize": "Jiyuan",
      "name": "济源",
      "zip": "0391"
    },
    {
      "phoneticize": "Juancheng",
      "name": "鄄城",
      "zip": "0530"
    },
    {
      "phoneticize": "Junan",
      "name": "莒南",
      "zip": "0539"
    },
    {
      "phoneticize": "Jurong",
      "name": "句容",
      "zip": "0511"
    },
    {
      "phoneticize": "Juxian",
      "name": "莒县",
      "zip": "0633"
    },
    {
      "phoneticize": "Juye",
      "name": "巨野",
      "zip": "0530"
    }
  ],
  "K": [
    {
      "phoneticize": "Kunming",
      "name": "昆明",
      "zip": "0871"
    },
    {
      "phoneticize": "Kaifeng",
      "name": "开封",
      "zip": "0378"
    },
    {
      "phoneticize": "Kashidi",
      "name": "喀什地",
      "zip": "0998"
    },
    {
      "phoneticize": "Kelamayi",
      "name": "克拉玛依",
      "zip": "0990"
    },
    {
      "phoneticize": "Kezile",
      "name": "克孜勒",
      "zip": "0908"
    },
    {
      "phoneticize": "Kaihua",
      "name": "开化",
      "zip": "0570"
    },
    {
      "phoneticize": "Kaiping",
      "name": "开平",
      "zip": "0750"
    },
    {
      "phoneticize": "Kaixian",
      "name": "开县",
      "zip": "023"
    },
    {
      "phoneticize": "Kaiyang",
      "name": "开阳",
      "zip": "0851"
    },
    {
      "phoneticize": "Kangping",
      "name": "康平",
      "zip": "024"
    },
    {
      "phoneticize": "Kenli",
      "name": "垦利",
      "zip": "0546"
    },
    {
      "phoneticize": "Kunshan",
      "name": "昆山",
      "zip": "0512"
    }
  ],
  "L": [
    {
      "phoneticize": "Lanzhou",
      "name": "兰州",
      "zip": "0931"
    },
    {
      "phoneticize": "Liuzhou",
      "name": "柳州",
      "zip": "0772"
    },
    {
      "phoneticize": "Luoyang",
      "name": "洛阳",
      "zip": "0379"
    },
    {
      "phoneticize": "Laibin",
      "name": "来宾",
      "zip": "0772"
    },
    {
      "phoneticize": "Laiwu",
      "name": "莱芜",
      "zip": "0634"
    },
    {
      "phoneticize": "Langfang",
      "name": "廊坊",
      "zip": "0316"
    },
    {
      "phoneticize": "Lasa",
      "name": "拉萨",
      "zip": "0891"
    },
    {
      "phoneticize": "Leshan",
      "name": "乐山",
      "zip": "0833"
    },
    {
      "phoneticize": "Liangshan",
      "name": "凉山",
      "zip": "0834"
    },
    {
      "phoneticize": "Lianyungang",
      "name": "连云港",
      "zip": "0518"
    },
    {
      "phoneticize": "Liaocheng",
      "name": "聊城",
      "zip": "0635"
    },
    {
      "phoneticize": "Liaoyang",
      "name": "辽阳",
      "zip": "0419"
    },
    {
      "phoneticize": "Liaoyuan",
      "name": "辽源",
      "zip": "0437"
    },
    {
      "phoneticize": "Lijiang",
      "name": "丽江",
      "zip": "0888"
    },
    {
      "phoneticize": "Lincang",
      "name": "临沧",
      "zip": "0883"
    },
    {
      "phoneticize": "Linfen",
      "name": "临汾",
      "zip": "0357"
    },
    {
      "phoneticize": "Linxia",
      "name": "临夏",
      "zip": "0930"
    },
    {
      "phoneticize": "Linyi",
      "name": "临沂",
      "zip": "0539"
    },
    {
      "phoneticize": "Linzhi",
      "name": "林芝",
      "zip": "0894"
    },
    {
      "phoneticize": "Lishui",
      "name": "丽水",
      "zip": "0578"
    },
    {
      "phoneticize": "Liuan",
      "name": "六安",
      "zip": "0564"
    },
    {
      "phoneticize": "Liupanshui",
      "name": "六盘水",
      "zip": "0858"
    },
    {
      "phoneticize": "Longnan",
      "name": "陇南",
      "zip": "0939"
    },
    {
      "phoneticize": "Longyan",
      "name": "龙岩",
      "zip": "0597"
    },
    {
      "phoneticize": "Loudi",
      "name": "娄底",
      "zip": "0738"
    },
    {
      "phoneticize": "Luohe",
      "name": "漯河",
      "zip": "0395"
    },
    {
      "phoneticize": "Luzhou",
      "name": "泸州",
      "zip": "0830"
    },
    {
      "phoneticize": "Lvliang",
      "name": "吕梁",
      "zip": "0358"
    },
    {
      "phoneticize": "Laian",
      "name": "来安",
      "zip": "0550"
    },
    {
      "phoneticize": "Laixi",
      "name": "莱西",
      "zip": "0532"
    },
    {
      "phoneticize": "Laiyang",
      "name": "莱阳",
      "zip": "0535"
    },
    {
      "phoneticize": "Laizhou",
      "name": "莱州",
      "zip": "0535"
    },
    {
      "phoneticize": "Langxi",
      "name": "郎溪",
      "zip": "0563"
    },
    {
      "phoneticize": "Lantian",
      "name": "蓝田",
      "zip": "029"
    },
    {
      "phoneticize": "Lanxi",
      "name": "兰溪",
      "zip": "0579"
    },
    {
      "phoneticize": "Lean",
      "name": "乐安",
      "zip": "0794"
    },
    {
      "phoneticize": "Lechang",
      "name": "乐昌",
      "zip": "0751"
    },
    {
      "phoneticize": "Leizhou",
      "name": "雷州",
      "zip": "0759"
    },
    {
      "phoneticize": "Leling",
      "name": "乐陵",
      "zip": "0534"
    },
    {
      "phoneticize": "Leping",
      "name": "乐平",
      "zip": "0798"
    },
    {
      "phoneticize": "Leqing",
      "name": "乐清",
      "zip": "0577"
    },
    {
      "phoneticize": "Leting",
      "name": "乐亭",
      "zip": "0315"
    },
    {
      "phoneticize": "Liancheng",
      "name": "连城",
      "zip": "0597"
    },
    {
      "phoneticize": "Liangping",
      "name": "梁平",
      "zip": "023"
    },
    {
      "phoneticize": "Liangshan",
      "name": "梁山",
      "zip": "0537"
    },
    {
      "phoneticize": "Lianhua",
      "name": "莲花",
      "zip": "0799"
    },
    {
      "phoneticize": "Lianjiang",
      "name": "连江",
      "zip": "0591"
    },
    {
      "phoneticize": "Lianjiang",
      "name": "廉江",
      "zip": "0759"
    },
    {
      "phoneticize": "Liannan",
      "name": "连南",
      "zip": "0763"
    },
    {
      "phoneticize": "Lianping",
      "name": "连平",
      "zip": "0762"
    },
    {
      "phoneticize": "Lianshan",
      "name": "连山",
      "zip": "0763"
    },
    {
      "phoneticize": "Lianshui",
      "name": "涟水",
      "zip": "0517"
    },
    {
      "phoneticize": "Lianzhou",
      "name": "连州",
      "zip": "0763"
    },
    {
      "phoneticize": "Liaozhong",
      "name": "辽中",
      "zip": "024"
    },
    {
      "phoneticize": "Lichuan",
      "name": "黎川",
      "zip": "0794"
    },
    {
      "phoneticize": "Lijin",
      "name": "利津",
      "zip": "0546"
    },
    {
      "phoneticize": "Linan",
      "name": "临安",
      "zip": "0571"
    },
    {
      "phoneticize": "Lingbi",
      "name": "灵璧",
      "zip": "0557"
    },
    {
      "phoneticize": "Lingshou",
      "name": "灵寿",
      "zip": "0311"
    },
    {
      "phoneticize": "Lingxian",
      "name": "陵县",
      "zip": "0534"
    },
    {
      "phoneticize": "Linhai",
      "name": "临海",
      "zip": "0576"
    },
    {
      "phoneticize": "Linqing",
      "name": "临清",
      "zip": "0635"
    },
    {
      "phoneticize": "Linquan",
      "name": "临泉",
      "zip": "0558"
    },
    {
      "phoneticize": "Linqu",
      "name": "临朐",
      "zip": "0536"
    },
    {
      "phoneticize": "Linshu",
      "name": "临沭",
      "zip": "0539"
    },
    {
      "phoneticize": "Linyi",
      "name": "临邑",
      "zip": "0534"
    },
    {
      "phoneticize": "Lishui",
      "name": "溧水",
      "zip": "025"
    },
    {
      "phoneticize": "Liucheng",
      "name": "柳城",
      "zip": "0772"
    },
    {
      "phoneticize": "Liujiang",
      "name": "柳江",
      "zip": "0772"
    },
    {
      "phoneticize": "Liuyang",
      "name": "浏阳",
      "zip": "0731"
    },
    {
      "phoneticize": "Lixin",
      "name": "利辛",
      "zip": "0558"
    },
    {
      "phoneticize": "Liyang",
      "name": "溧阳",
      "zip": "0519"
    },
    {
      "phoneticize": "Longan",
      "name": "隆安",
      "zip": "0771"
    },
    {
      "phoneticize": "Longchuan",
      "name": "龙川",
      "zip": "0762"
    },
    {
      "phoneticize": "Longhai",
      "name": "龙海",
      "zip": "0596"
    },
    {
      "phoneticize": "Longkou",
      "name": "龙口",
      "zip": "0535"
    },
    {
      "phoneticize": "Longmen",
      "name": "龙门",
      "zip": "0752"
    },
    {
      "phoneticize": "Longnan",
      "name": "龙南",
      "zip": "0797"
    },
    {
      "phoneticize": "Longquan",
      "name": "龙泉",
      "zip": "0578"
    },
    {
      "phoneticize": "Longyou",
      "name": "龙游",
      "zip": "0570"
    },
    {
      "phoneticize": "Luancheng",
      "name": "栾城",
      "zip": "0311"
    },
    {
      "phoneticize": "Luanchuan",
      "name": "栾川",
      "zip": "0379"
    },
    {
      "phoneticize": "Luannan",
      "name": "滦南",
      "zip": "0315"
    },
    {
      "phoneticize": "Luanxian",
      "name": "滦县",
      "zip": "0315"
    },
    {
      "phoneticize": "Lufeng",
      "name": "陆丰",
      "zip": "0660"
    },
    {
      "phoneticize": "Luhe",
      "name": "陆河",
      "zip": "0660"
    },
    {
      "phoneticize": "Lujiang",
      "name": "庐江",
      "zip": "0565"
    },
    {
      "phoneticize": "Luoding",
      "name": "罗定",
      "zip": "0766"
    },
    {
      "phoneticize": "Luoning",
      "name": "洛宁",
      "zip": "0379"
    },
    {
      "phoneticize": "Luoyuan",
      "name": "罗源",
      "zip": "0591"
    },
    {
      "phoneticize": "Luquan",
      "name": "鹿泉",
      "zip": "0311"
    },
    {
      "phoneticize": "Luquan",
      "name": "禄劝",
      "zip": "0871"
    },
    {
      "phoneticize": "Luxi",
      "name": "芦溪",
      "zip": "0799"
    },
    {
      "phoneticize": "Luzhai",
      "name": "鹿寨",
      "zip": "0772"
    }
  ],
  "N": [
    {
      "phoneticize": "Nanchang",
      "name": "南昌",
      "zip": "0791"
    },
    {
      "phoneticize": "Nanjing",
      "name": "南京",
      "zip": "025"
    },
    {
      "phoneticize": "Nanning",
      "name": "南宁",
      "zip": "0771"
    },
    {
      "phoneticize": "Nantong",
      "name": "南通",
      "zip": "0513"
    },
    {
      "phoneticize": "Ningbo",
      "name": "宁波",
      "zip": "0574"
    },
    {
      "phoneticize": "Nanchong",
      "name": "南充",
      "zip": "0817"
    },
    {
      "phoneticize": "Nanping",
      "name": "南平",
      "zip": "0599"
    },
    {
      "phoneticize": "Nanyang",
      "name": "南阳",
      "zip": "0377"
    },
    {
      "phoneticize": "Naqu",
      "name": "那曲",
      "zip": "0896"
    },
    {
      "phoneticize": "Neijiang",
      "name": "内江",
      "zip": "0832"
    },
    {
      "phoneticize": "Ningde",
      "name": "宁德",
      "zip": "0593"
    },
    {
      "phoneticize": "Nujiang",
      "name": "怒江",
      "zip": "0886"
    },
    {
      "phoneticize": "Nanan",
      "name": "南安",
      "zip": "0595"
    },
    {
      "phoneticize": "Nanao",
      "name": "南澳",
      "zip": "0754"
    },
    {
      "phoneticize": "Nancheng",
      "name": "南城",
      "zip": "0794"
    },
    {
      "phoneticize": "Nanchuan",
      "name": "南川",
      "zip": "023"
    },
    {
      "phoneticize": "Nanfeng",
      "name": "南丰",
      "zip": "0794"
    },
    {
      "phoneticize": "Nanjing",
      "name": "南靖",
      "zip": "0596"
    },
    {
      "phoneticize": "Nankang",
      "name": "南康",
      "zip": "0797"
    },
    {
      "phoneticize": "Nanling",
      "name": "南陵",
      "zip": "0553"
    },
    {
      "phoneticize": "Nanxiong",
      "name": "南雄",
      "zip": "0751"
    },
    {
      "phoneticize": "Ningdu",
      "name": "宁都",
      "zip": "0797"
    },
    {
      "phoneticize": "Ningguo",
      "name": "宁国",
      "zip": "0563"
    },
    {
      "phoneticize": "Ninghai",
      "name": "宁海",
      "zip": "0574"
    },
    {
      "phoneticize": "Ninghua",
      "name": "宁化",
      "zip": "0598"
    },
    {
      "phoneticize": "Ningjin",
      "name": "宁津",
      "zip": "0534"
    },
    {
      "phoneticize": "Ningxiang",
      "name": "宁乡",
      "zip": "0731"
    },
    {
      "phoneticize": "Ningyang",
      "name": "宁阳",
      "zip": "0538"
    },
    {
      "phoneticize": "Nongan",
      "name": "农安",
      "zip": "0431"
    }
  ],
  "Q": [
    {
      "phoneticize": "Qingdao",
      "name": "青岛",
      "zip": "0532"
    },
    {
      "phoneticize": "Quanzhou",
      "name": "泉州",
      "zip": "0595"
    },
    {
      "phoneticize": "Qiandong",
      "name": "黔东",
      "zip": "0855"
    },
    {
      "phoneticize": "Qiannan",
      "name": "黔南",
      "zip": "0854"
    },
    {
      "phoneticize": "Qianxinan",
      "name": "黔西南",
      "zip": "0859"
    },
    {
      "phoneticize": "Qingyang",
      "name": "庆阳",
      "zip": "0934"
    },
    {
      "phoneticize": "Qingyuan",
      "name": "清远",
      "zip": "0763"
    },
    {
      "phoneticize": "Qinhuangdao",
      "name": "秦皇岛",
      "zip": "0335"
    },
    {
      "phoneticize": "Qinzhou",
      "name": "钦州",
      "zip": "0777"
    },
    {
      "phoneticize": "Qiqihaer",
      "name": "齐齐哈尔",
      "zip": "0452"
    },
    {
      "phoneticize": "Qitaihe",
      "name": "七台河",
      "zip": "0464"
    },
    {
      "phoneticize": "Qujing",
      "name": "曲靖",
      "zip": "0874"
    },
    {
      "phoneticize": "Quzhou",
      "name": "衢州",
      "zip": "0570"
    },
    {
      "phoneticize": "Qianan",
      "name": "迁安",
      "zip": "0315"
    },
    {
      "phoneticize": "Qianshan",
      "name": "潜山",
      "zip": "0556"
    },
    {
      "phoneticize": "Qianshan",
      "name": "铅山",
      "zip": "0793"
    },
    {
      "phoneticize": "Qianxi",
      "name": "迁西",
      "zip": "0315"
    },
    {
      "phoneticize": "Qidong",
      "name": "启东",
      "zip": "0513"
    },
    {
      "phoneticize": "Qihe",
      "name": "齐河",
      "zip": "0534"
    },
    {
      "phoneticize": "Qijiang",
      "name": "綦江",
      "zip": "023"
    },
    {
      "phoneticize": "Qimen",
      "name": "祁门",
      "zip": "0559"
    },
    {
      "phoneticize": "Qingliu",
      "name": "清流",
      "zip": "0598"
    },
    {
      "phoneticize": "Qingtian",
      "name": "青田",
      "zip": "0578"
    },
    {
      "phoneticize": "Qingxin",
      "name": "清新",
      "zip": "0763"
    },
    {
      "phoneticize": "Qingyang",
      "name": "青阳",
      "zip": "0566"
    },
    {
      "phoneticize": "Qingyuan",
      "name": "庆元",
      "zip": "0578"
    },
    {
      "phoneticize": "Qingyun",
      "name": "庆云",
      "zip": "0534"
    },
    {
      "phoneticize": "Qingzhen",
      "name": "清镇",
      "zip": "0851"
    },
    {
      "phoneticize": "Qingzhou",
      "name": "青州",
      "zip": "0536"
    },
    {
      "phoneticize": "Qinyang",
      "name": "沁阳",
      "zip": "0391"
    },
    {
      "phoneticize": "Qionglai",
      "name": "邛崃",
      "zip": "028"
    },
    {
      "phoneticize": "Qixia",
      "name": "栖霞",
      "zip": "0535"
    },
    {
      "phoneticize": "Quanjiao",
      "name": "全椒",
      "zip": "0550"
    },
    {
      "phoneticize": "Quannan",
      "name": "全南",
      "zip": "0797"
    },
    {
      "phoneticize": "Qufu",
      "name": "曲阜",
      "zip": "0537"
    },
    {
      "phoneticize": "Qujiang",
      "name": "曲江",
      "zip": "0751"
    }
  ],
  "W": [
    {
      "phoneticize": "Weifang",
      "name": "潍坊",
      "zip": "0536"
    },
    {
      "phoneticize": "Weihai",
      "name": "威海",
      "zip": "0631"
    },
    {
      "phoneticize": "Wuhan",
      "name": "武汉",
      "zip": "027"
    },
    {
      "phoneticize": "Wuxi",
      "name": "无锡",
      "zip": "0510"
    },
    {
      "phoneticize": "Weinan",
      "name": "渭南",
      "zip": "0913"
    },
    {
      "phoneticize": "Wenshan",
      "name": "文山",
      "zip": "0876"
    },
    {
      "phoneticize": "Wenzhou",
      "name": "温州",
      "zip": "0577"
    },
    {
      "phoneticize": "Wuhai",
      "name": "乌海",
      "zip": "0473"
    },
    {
      "phoneticize": "Wuhu",
      "name": "芜湖",
      "zip": "0553"
    },
    {
      "phoneticize": "Wulanchabu",
      "name": "乌兰察布",
      "zip": "0474"
    },
    {
      "phoneticize": "Wulumuqi",
      "name": "乌鲁木齐",
      "zip": "0991"
    },
    {
      "phoneticize": "Wuwei",
      "name": "武威",
      "zip": "0935"
    },
    {
      "phoneticize": "Wuzhong",
      "name": "吴忠",
      "zip": "0953"
    },
    {
      "phoneticize": "Wuzhou",
      "name": "梧州",
      "zip": "0774"
    },
    {
      "phoneticize": "Wafangdian",
      "name": "瓦房店",
      "zip": "0411"
    },
    {
      "phoneticize": "Wanan",
      "name": "万安",
      "zip": "0796"
    },
    {
      "phoneticize": "Wangcheng",
      "name": "望城",
      "zip": "0731"
    },
    {
      "phoneticize": "Wangjiang",
      "name": "望江",
      "zip": "0556"
    },
    {
      "phoneticize": "Wannian",
      "name": "万年",
      "zip": "0793"
    },
    {
      "phoneticize": "Wanzai",
      "name": "万载",
      "zip": "0795"
    },
    {
      "phoneticize": "Weishan",
      "name": "微山",
      "zip": "0537"
    },
    {
      "phoneticize": "Wencheng",
      "name": "文成",
      "zip": "0577"
    },
    {
      "phoneticize": "Wendeng",
      "name": "文登",
      "zip": "0631"
    },
    {
      "phoneticize": "Wengyuan",
      "name": "翁源",
      "zip": "0751"
    },
    {
      "phoneticize": "Wenling",
      "name": "温岭",
      "zip": "0576"
    },
    {
      "phoneticize": "Wenshang",
      "name": "汶上",
      "zip": "0537"
    },
    {
      "phoneticize": "Wenxian",
      "name": "温县",
      "zip": "0391"
    },
    {
      "phoneticize": "Woyang",
      "name": "涡阳",
      "zip": "0558"
    },
    {
      "phoneticize": "Wuchang",
      "name": "五常",
      "zip": "0451"
    },
    {
      "phoneticize": "Wucheng",
      "name": "武城",
      "zip": "0534"
    },
    {
      "phoneticize": "Wuchuan",
      "name": "吴川",
      "zip": "0759"
    },
    {
      "phoneticize": "Wudi",
      "name": "无棣",
      "zip": "0543"
    },
    {
      "phoneticize": "Wuhe",
      "name": "五河",
      "zip": "0552"
    },
    {
      "phoneticize": "Wuhu",
      "name": "芜湖",
      "zip": "0553"
    },
    {
      "phoneticize": "Wuhua",
      "name": "五华",
      "zip": "0753"
    },
    {
      "phoneticize": "Wuji",
      "name": "无极",
      "zip": "0311"
    },
    {
      "phoneticize": "Wujiang",
      "name": "吴江",
      "zip": "0512"
    },
    {
      "phoneticize": "Wulian",
      "name": "五莲",
      "zip": "0633"
    },
    {
      "phoneticize": "Wulong",
      "name": "武隆",
      "zip": "023"
    },
    {
      "phoneticize": "Wuming",
      "name": "武鸣",
      "zip": "0771"
    },
    {
      "phoneticize": "Wuning",
      "name": "武宁",
      "zip": "0792"
    },
    {
      "phoneticize": "Wuping",
      "name": "武平",
      "zip": "0597"
    },
    {
      "phoneticize": "Wushan",
      "name": "巫山",
      "zip": "023"
    },
    {
      "phoneticize": "Wuwei",
      "name": "无为",
      "zip": "0565"
    },
    {
      "phoneticize": "Wuxi",
      "name": "巫溪",
      "zip": "023"
    },
    {
      "phoneticize": "Wuyi",
      "name": "武义",
      "zip": "0579"
    },
    {
      "phoneticize": "Wuyishan",
      "name": "武夷山",
      "zip": "0599"
    },
    {
      "phoneticize": "Wuyuan",
      "name": "婺源",
      "zip": "0793"
    },
    {
      "phoneticize": "Wuzhi",
      "name": "武陟",
      "zip": "0391"
    }
  ],
  "X": [
    {
      "phoneticize": "Xiamen",
      "name": "厦门",
      "zip": "0592"
    },
    {
      "phoneticize": "Xian",
      "name": "西安",
      "zip": "029"
    },
    {
      "phoneticize": "Xuchang",
      "name": "许昌",
      "zip": "0374"
    },
    {
      "phoneticize": "Xuzhou",
      "name": "徐州",
      "zip": "0516"
    },
    {
      "phoneticize": "Xiangfan",
      "name": "襄樊",
      "zip": "0710"
    },
    {
      "phoneticize": "Xiangtan",
      "name": "湘潭",
      "zip": "0732"
    },
    {
      "phoneticize": "Xiangxi",
      "name": "湘西",
      "zip": "0743"
    },
    {
      "phoneticize": "Xianning",
      "name": "咸宁",
      "zip": "0715"
    },
    {
      "phoneticize": "Xianyang",
      "name": "咸阳",
      "zip": "029"
    },
    {
      "phoneticize": "Xiaogan",
      "name": "孝感",
      "zip": "0712"
    },
    {
      "phoneticize": "Xilinguolemeng",
      "name": "锡林郭勒盟",
      "zip": "0479"
    },
    {
      "phoneticize": "Xinganmeng",
      "name": "兴安盟",
      "zip": "0482"
    },
    {
      "phoneticize": "Xingtai",
      "name": "邢台",
      "zip": "0319"
    },
    {
      "phoneticize": "Xining",
      "name": "西宁",
      "zip": "0971"
    },
    {
      "phoneticize": "Xinxiang",
      "name": "新乡",
      "zip": "0373"
    },
    {
      "phoneticize": "Xinyang",
      "name": "信阳",
      "zip": "0376"
    },
    {
      "phoneticize": "Xinyu",
      "name": "新余",
      "zip": "0790"
    },
    {
      "phoneticize": "Xinzhou",
      "name": "忻州",
      "zip": "0350"
    },
    {
      "phoneticize": "Xishuangbanna",
      "name": "西双版纳",
      "zip": "0691"
    },
    {
      "phoneticize": "Xuancheng",
      "name": "宣城",
      "zip": "0563"
    },
    {
      "phoneticize": "Xiajiang",
      "name": "峡江",
      "zip": "0796"
    },
    {
      "phoneticize": "Xiajin",
      "name": "夏津",
      "zip": "0534"
    },
    {
      "phoneticize": "Xiangshan",
      "name": "象山",
      "zip": "0574"
    },
    {
      "phoneticize": "Xiangshui",
      "name": "响水",
      "zip": "0515"
    },
    {
      "phoneticize": "Xianju",
      "name": "仙居",
      "zip": "0576"
    },
    {
      "phoneticize": "Xianyou",
      "name": "仙游",
      "zip": "0594"
    },
    {
      "phoneticize": "Xiaoxian",
      "name": "萧县",
      "zip": "0557"
    },
    {
      "phoneticize": "Xiapu",
      "name": "霞浦",
      "zip": "0593"
    },
    {
      "phoneticize": "Xifeng",
      "name": "息烽",
      "zip": "0851"
    },
    {
      "phoneticize": "Xinan",
      "name": "新安",
      "zip": "0379"
    },
    {
      "phoneticize": "Xinchang",
      "name": "新昌",
      "zip": "0575"
    },
    {
      "phoneticize": "Xinfeng",
      "name": "信丰",
      "zip": "0797"
    },
    {
      "phoneticize": "Xinfeng",
      "name": "新丰",
      "zip": "0751"
    },
    {
      "phoneticize": "Xingan",
      "name": "新干",
      "zip": "0796"
    },
    {
      "phoneticize": "Xingguo",
      "name": "兴国",
      "zip": "0797"
    },
    {
      "phoneticize": "Xinghua",
      "name": "兴化",
      "zip": "0523"
    },
    {
      "phoneticize": "Xingning",
      "name": "兴宁",
      "zip": "0753"
    },
    {
      "phoneticize": "Xingtang",
      "name": "行唐",
      "zip": "0311"
    },
    {
      "phoneticize": "Xingyang",
      "name": "荥阳",
      "zip": "0371"
    },
    {
      "phoneticize": "Xingzi",
      "name": "星子",
      "zip": "0792"
    },
    {
      "phoneticize": "Xinji",
      "name": "辛集",
      "zip": "0311"
    },
    {
      "phoneticize": "Xinjian",
      "name": "新建",
      "zip": "0791"
    },
    {
      "phoneticize": "Xinjin",
      "name": "新津",
      "zip": "028"
    },
    {
      "phoneticize": "Xinle",
      "name": "新乐",
      "zip": "0311"
    },
    {
      "phoneticize": "Xinmin",
      "name": "新民",
      "zip": "024"
    },
    {
      "phoneticize": "Xinmi",
      "name": "新密",
      "zip": "0371"
    },
    {
      "phoneticize": "Xintai",
      "name": "新泰",
      "zip": "0538"
    },
    {
      "phoneticize": "Xinxing",
      "name": "新兴",
      "zip": "0766"
    },
    {
      "phoneticize": "Xinyi",
      "name": "新沂",
      "zip": "0516"
    },
    {
      "phoneticize": "Xinyi",
      "name": "信宜",
      "zip": "0668"
    },
    {
      "phoneticize": "Xinzheng",
      "name": "新郑",
      "zip": "0371"
    },
    {
      "phoneticize": "Xiuning",
      "name": "休宁",
      "zip": "0559"
    },
    {
      "phoneticize": "Xiushan",
      "name": "秀山",
      "zip": "023"
    },
    {
      "phoneticize": "Xiushui",
      "name": "修水",
      "zip": "0792"
    },
    {
      "phoneticize": "Xiuwen",
      "name": "修文",
      "zip": "0851"
    },
    {
      "phoneticize": "Xiuwu",
      "name": "修武",
      "zip": "0391"
    },
    {
      "phoneticize": "Xundian",
      "name": "寻甸",
      "zip": "0871"
    },
    {
      "phoneticize": "Xunwu",
      "name": "寻乌",
      "zip": "0797"
    },
    {
      "phoneticize": "Xuwen",
      "name": "徐闻",
      "zip": "0759"
    },
    {
      "phoneticize": "Xuyi",
      "name": "盱眙",
      "zip": "0517"
    }
  ],
  "Y": [
    {
      "phoneticize": "Yangzhou",
      "name": "扬州",
      "zip": "0514"
    },
    {
      "phoneticize": "Yantai",
      "name": "烟台",
      "zip": "0535"
    },
    {
      "phoneticize": "Yaan",
      "name": "雅安",
      "zip": "0835"
    },
    {
      "phoneticize": "Yanan",
      "name": "延安",
      "zip": "0911"
    },
    {
      "phoneticize": "Yanbian",
      "name": "延边",
      "zip": "0433"
    },
    {
      "phoneticize": "Yancheng",
      "name": "盐城",
      "zip": "0515"
    },
    {
      "phoneticize": "Yangjiang",
      "name": "阳江",
      "zip": "0662"
    },
    {
      "phoneticize": "Yangquan",
      "name": "阳泉",
      "zip": "0353"
    },
    {
      "phoneticize": "Yibin",
      "name": "宜宾",
      "zip": "0831"
    },
    {
      "phoneticize": "Yichang",
      "name": "宜昌",
      "zip": "0717"
    },
    {
      "phoneticize": "Yichun",
      "name": "伊春",
      "zip": "0458"
    },
    {
      "phoneticize": "Yichun",
      "name": "宜春",
      "zip": "0795"
    },
    {
      "phoneticize": "Yilihasake",
      "name": "伊犁哈萨克",
      "zip": "0999"
    },
    {
      "phoneticize": "Yinchuan",
      "name": "银川",
      "zip": "0951"
    },
    {
      "phoneticize": "Yingkou",
      "name": "营口",
      "zip": "0417"
    },
    {
      "phoneticize": "Yingtan",
      "name": "鹰潭",
      "zip": "0701"
    },
    {
      "phoneticize": "Yiyang",
      "name": "益阳",
      "zip": "0737"
    },
    {
      "phoneticize": "Yongzhou",
      "name": "永州",
      "zip": "0746"
    },
    {
      "phoneticize": "Yueyang",
      "name": "岳阳",
      "zip": "0730"
    },
    {
      "phoneticize": "Yulin",
      "name": "玉林",
      "zip": "0775"
    },
    {
      "phoneticize": "Yulin",
      "name": "榆林",
      "zip": "0912"
    },
    {
      "phoneticize": "Yuncheng",
      "name": "运城",
      "zip": "0359"
    },
    {
      "phoneticize": "Yunfu",
      "name": "云浮",
      "zip": "0766"
    },
    {
      "phoneticize": "Yushu",
      "name": "玉树",
      "zip": "0976"
    },
    {
      "phoneticize": "Yuxi",
      "name": "玉溪",
      "zip": "0877"
    },
    {
      "phoneticize": "Yangchun",
      "name": "阳春",
      "zip": "0662"
    },
    {
      "phoneticize": "Yangdong",
      "name": "阳东",
      "zip": "0662"
    },
    {
      "phoneticize": "Yanggu",
      "name": "阳谷",
      "zip": "0635"
    },
    {
      "phoneticize": "Yangshan",
      "name": "阳山",
      "zip": "0763"
    },
    {
      "phoneticize": "Yangxin",
      "name": "阳信",
      "zip": "0543"
    },
    {
      "phoneticize": "Yangxi",
      "name": "阳西",
      "zip": "0662"
    },
    {
      "phoneticize": "Yangzhong",
      "name": "扬中",
      "zip": "0511"
    },
    {
      "phoneticize": "Yanshi",
      "name": "偃师",
      "zip": "0379"
    },
    {
      "phoneticize": "Yanshou",
      "name": "延寿",
      "zip": "0451"
    },
    {
      "phoneticize": "Yanzhou",
      "name": "兖州",
      "zip": "0537"
    },
    {
      "phoneticize": "Yichuan",
      "name": "伊川",
      "zip": "0379"
    },
    {
      "phoneticize": "Yifeng",
      "name": "宜丰",
      "zip": "0795"
    },
    {
      "phoneticize": "Yihuang",
      "name": "宜黄",
      "zip": "0794"
    },
    {
      "phoneticize": "Yilan",
      "name": "依兰",
      "zip": "0451"
    },
    {
      "phoneticize": "Yiliang",
      "name": "宜良",
      "zip": "0871"
    },
    {
      "phoneticize": "Yinan",
      "name": "沂南",
      "zip": "0539"
    },
    {
      "phoneticize": "Yingde",
      "name": "英德",
      "zip": "0763"
    },
    {
      "phoneticize": "Yingshang",
      "name": "颍上",
      "zip": "0558"
    },
    {
      "phoneticize": "Yishui",
      "name": "沂水",
      "zip": "0539"
    },
    {
      "phoneticize": "Yiwu",
      "name": "义乌",
      "zip": "0579"
    },
    {
      "phoneticize": "Yixian",
      "name": "黟县",
      "zip": "0559"
    },
    {
      "phoneticize": "Yixing",
      "name": "宜兴",
      "zip": "0510"
    },
    {
      "phoneticize": "Yiyang",
      "name": "弋阳",
      "zip": "0793"
    },
    {
      "phoneticize": "Yiyang",
      "name": "宜阳",
      "zip": "0379"
    },
    {
      "phoneticize": "Yiyuan",
      "name": "沂源",
      "zip": "0533"
    },
    {
      "phoneticize": "Yizheng",
      "name": "仪征",
      "zip": "0514"
    },
    {
      "phoneticize": "Yongan",
      "name": "永安",
      "zip": "0598"
    },
    {
      "phoneticize": "Yongchuan",
      "name": "永川",
      "zip": "023"
    },
    {
      "phoneticize": "Yongchun",
      "name": "永春",
      "zip": "0595"
    },
    {
      "phoneticize": "Yongdeng",
      "name": "永登",
      "zip": "0931"
    },
    {
      "phoneticize": "Yongding",
      "name": "永定",
      "zip": "0597"
    },
    {
      "phoneticize": "Yongfeng",
      "name": "永丰",
      "zip": "0796"
    },
    {
      "phoneticize": "Yongji",
      "name": "永吉",
      "zip": "0423"
    },
    {
      "phoneticize": "Yongjia",
      "name": "永嘉",
      "zip": "0577"
    },
    {
      "phoneticize": "Yongkang",
      "name": "永康",
      "zip": "0579"
    },
    {
      "phoneticize": "Yongning",
      "name": "邕宁",
      "zip": "0771"
    },
    {
      "phoneticize": "Yongtai",
      "name": "永泰",
      "zip": "0591"
    },
    {
      "phoneticize": "Yongxin",
      "name": "永新",
      "zip": "0796"
    },
    {
      "phoneticize": "Yongxiu",
      "name": "永修",
      "zip": "0792"
    },
    {
      "phoneticize": "Youxi",
      "name": "尤溪",
      "zip": "0598"
    },
    {
      "phoneticize": "Youyang",
      "name": "酉阳",
      "zip": "023"
    },
    {
      "phoneticize": "Yuanshi",
      "name": "元氏",
      "zip": "0311"
    },
    {
      "phoneticize": "Yucheng",
      "name": "禹城",
      "zip": "0534"
    },
    {
      "phoneticize": "Yudu",
      "name": "于都",
      "zip": "0797"
    },
    {
      "phoneticize": "Yuexi",
      "name": "岳西",
      "zip": "0556"
    },
    {
      "phoneticize": "Yugan",
      "name": "余干",
      "zip": "0793"
    },
    {
      "phoneticize": "Yuhuan",
      "name": "玉环",
      "zip": "0576"
    },
    {
      "phoneticize": "Yujiang",
      "name": "余江",
      "zip": "0701"
    },
    {
      "phoneticize": "Yunan",
      "name": "郁南",
      "zip": "0766"
    },
    {
      "phoneticize": "Yunan",
      "name": "云安",
      "zip": "0766"
    },
    {
      "phoneticize": "Yuncheng",
      "name": "郓城",
      "zip": "0530"
    },
    {
      "phoneticize": "Yunhe",
      "name": "云和",
      "zip": "0578"
    },
    {
      "phoneticize": "Yunxiao",
      "name": "云霄",
      "zip": "0596"
    },
    {
      "phoneticize": "Yunyang",
      "name": "云阳",
      "zip": "023"
    },
    {
      "phoneticize": "Yushan",
      "name": "玉山",
      "zip": "0793"
    },
    {
      "phoneticize": "Yushu",
      "name": "榆树",
      "zip": "0431"
    },
    {
      "phoneticize": "Yutai",
      "name": "鱼台",
      "zip": "0537"
    },
    {
      "phoneticize": "Yutian",
      "name": "玉田",
      "zip": "0315"
    },
    {
      "phoneticize": "Yuyao",
      "name": "余姚",
      "zip": "0574"
    },
    {
      "phoneticize": "Yuzhong",
      "name": "榆中",
      "zip": "0931"
    }
  ],
  "Z": [
    {
      "phoneticize": "Zhangzhou",
      "name": "漳州",
      "zip": "0596"
    },
    {
      "phoneticize": "Zhengzhou",
      "name": "郑州",
      "zip": "0371"
    },
    {
      "phoneticize": "Zhongshan",
      "name": "中山",
      "zip": "0760"
    },
    {
      "phoneticize": "Zhuhai",
      "name": "珠海",
      "zip": "0756"
    },
    {
      "phoneticize": "Zaozhuang",
      "name": "枣庄",
      "zip": "0623"
    },
    {
      "phoneticize": "Zhangjiajie",
      "name": "张家界",
      "zip": "0744"
    },
    {
      "phoneticize": "Zhangjiakou",
      "name": "张家口",
      "zip": "0313"
    },
    {
      "phoneticize": "Zhangye",
      "name": "张掖",
      "zip": "0936"
    },
    {
      "phoneticize": "Zhanjiang",
      "name": "湛江",
      "zip": "0759"
    },
    {
      "phoneticize": "Zhaoqing",
      "name": "肇庆",
      "zip": "0758"
    },
    {
      "phoneticize": "Zhaotong",
      "name": "昭通",
      "zip": "0870"
    },
    {
      "phoneticize": "Zhenjiang",
      "name": "镇江",
      "zip": "0511"
    },
    {
      "phoneticize": "Zhongwei",
      "name": "中卫",
      "zip": "0955"
    },
    {
      "phoneticize": "Zhoukou",
      "name": "周口",
      "zip": "0394"
    },
    {
      "phoneticize": "Zhoushan",
      "name": "舟山",
      "zip": "0580"
    },
    {
      "phoneticize": "Zhumadian",
      "name": "驻马店",
      "zip": "0396"
    },
    {
      "phoneticize": "Zhuzhou",
      "name": "株洲",
      "zip": "0731"
    },
    {
      "phoneticize": "Zibo",
      "name": "淄博",
      "zip": "0533"
    },
    {
      "phoneticize": "Zigong",
      "name": "自贡",
      "zip": "0813"
    },
    {
      "phoneticize": "Ziyang",
      "name": "资阳",
      "zip": "028"
    },
    {
      "phoneticize": "Zunyi",
      "name": "遵义",
      "zip": "0852"
    },
    {
      "phoneticize": "Zanhuang",
      "name": "赞皇",
      "zip": "0311"
    },
    {
      "phoneticize": "Zengcheng",
      "name": "增城",
      "zip": "020"
    },
    {
      "phoneticize": "Zhangjiagang",
      "name": "张家港",
      "zip": "0512"
    },
    {
      "phoneticize": "Zhangping",
      "name": "漳平",
      "zip": "0597"
    },
    {
      "phoneticize": "Zhangpu",
      "name": "漳浦",
      "zip": "0596"
    },
    {
      "phoneticize": "Zhangqiu",
      "name": "章丘",
      "zip": "0531"
    },
    {
      "phoneticize": "Zhangshu",
      "name": "樟树",
      "zip": "0795"
    },
    {
      "phoneticize": "Zhanhua",
      "name": "沾化",
      "zip": "0543"
    },
    {
      "phoneticize": "Zhaoxian",
      "name": "赵县",
      "zip": "0311"
    },
    {
      "phoneticize": "Zhaoyuan",
      "name": "招远",
      "zip": "0535"
    },
    {
      "phoneticize": "Zhengding",
      "name": "正定",
      "zip": "0311"
    },
    {
      "phoneticize": "Zhenghe",
      "name": "政和",
      "zip": "0599"
    },
    {
      "phoneticize": "Zherong",
      "name": "柘荣",
      "zip": "0593"
    },
    {
      "phoneticize": "Zhongmou",
      "name": "中牟",
      "zip": "0371"
    },
    {
      "phoneticize": "Zhongxian",
      "name": "忠县",
      "zip": "023"
    },
    {
      "phoneticize": "Zhouning",
      "name": "周宁",
      "zip": "0593"
    },
    {
      "phoneticize": "Zhouzhi",
      "name": "周至",
      "zip": "029"
    },
    {
      "phoneticize": "Zhuanghe",
      "name": "庄河",
      "zip": "0411"
    },
    {
      "phoneticize": "Zhucheng",
      "name": "诸城",
      "zip": "0536"
    },
    {
      "phoneticize": "Zhuji",
      "name": "诸暨",
      "zip": "0575"
    },
    {
      "phoneticize": "Zijin",
      "name": "紫金",
      "zip": "0762"
    },
    {
      "phoneticize": "Zixi",
      "name": "资溪",
      "zip": "0794"
    },
    {
      "phoneticize": "Zoucheng",
      "name": "邹城",
      "zip": "0537"
    },
    {
      "phoneticize": "Zouping",
      "name": "邹平",
      "zip": "0543"
    },
    {
      "phoneticize": "Zunhua",
      "name": "遵化",
      "zip": "0315"
    }
  ],
  "A": [
    {
      "phoneticize": "Aba",
      "name": "阿坝",
      "zip": "0837"
    },
    {
      "phoneticize": "Akesu",
      "name": "阿克苏",
      "zip": "0997"
    },
    {
      "phoneticize": "Alashanmeng",
      "name": "阿拉善盟",
      "zip": "0483"
    },
    {
      "phoneticize": "Aletai",
      "name": "阿勒泰",
      "zip": "0906"
    },
    {
      "phoneticize": "Ali",
      "name": "阿里",
      "zip": "0897"
    },
    {
      "phoneticize": "Ankang",
      "name": "安康",
      "zip": "0915"
    },
    {
      "phoneticize": "Anqing",
      "name": "安庆",
      "zip": "0556"
    },
    {
      "phoneticize": "Anshan",
      "name": "鞍山",
      "zip": "0412"
    },
    {
      "phoneticize": "Anshun",
      "name": "安顺",
      "zip": "0853"
    },
    {
      "phoneticize": "Anyang",
      "name": "安阳",
      "zip": "0372"
    },
    {
      "phoneticize": "Acheng",
      "name": "阿城",
      "zip": "0451"
    },
    {
      "phoneticize": "Anfu",
      "name": "安福",
      "zip": "0796"
    },
    {
      "phoneticize": "Anji",
      "name": "安吉",
      "zip": "0572"
    },
    {
      "phoneticize": "Anning",
      "name": "安宁",
      "zip": "0871"
    },
    {
      "phoneticize": "Anqiu",
      "name": "安丘",
      "zip": "0536"
    },
    {
      "phoneticize": "Anxi",
      "name": "安溪",
      "zip": "0595"
    },
    {
      "phoneticize": "Anyi",
      "name": "安义",
      "zip": "0791"
    },
    {
      "phoneticize": "Anyuan",
      "name": "安远",
      "zip": "0797"
    }
  ],
  "E": [
    {
      "phoneticize": "Eerduosi",
      "name": "鄂尔多斯",
      "zip": "0477"
    },
    {
      "phoneticize": "Enshi",
      "name": "恩施",
      "zip": "0718"
    },
    {
      "phoneticize": "Ezhou",
      "name": "鄂州",
      "zip": "0711"
    },
    {
      "phoneticize": "Enping",
      "name": "恩平",
      "zip": "0750"
    }
  ],
  "M": [
    {
      "phoneticize": "Maanshan",
      "name": "马鞍山",
      "zip": "0555"
    },
    {
      "phoneticize": "Maoming",
      "name": "茂名",
      "zip": "0668"
    },
    {
      "phoneticize": "Meishan",
      "name": "眉山",
      "zip": "028"
    },
    {
      "phoneticize": "Meizhou",
      "name": "梅州",
      "zip": "0753"
    },
    {
      "phoneticize": "Mianyang",
      "name": "绵阳",
      "zip": "0816"
    },
    {
      "phoneticize": "Mudanjiang",
      "name": "牡丹江",
      "zip": "0453"
    },
    {
      "phoneticize": "Mashan",
      "name": "马山",
      "zip": "0771"
    },
    {
      "phoneticize": "Meixian",
      "name": "梅县",
      "zip": "0753"
    },
    {
      "phoneticize": "Mengcheng",
      "name": "蒙城",
      "zip": "0558"
    },
    {
      "phoneticize": "Mengjin",
      "name": "孟津",
      "zip": "0379"
    },
    {
      "phoneticize": "Mengyin",
      "name": "蒙阴",
      "zip": "0539"
    },
    {
      "phoneticize": "Mengzhou",
      "name": "孟州",
      "zip": "0391"
    },
    {
      "phoneticize": "Mingguang",
      "name": "明光",
      "zip": "0550"
    },
    {
      "phoneticize": "Mingxi",
      "name": "明溪",
      "zip": "0598"
    },
    {
      "phoneticize": "Minhou",
      "name": "闽侯",
      "zip": "0591"
    },
    {
      "phoneticize": "Minqing",
      "name": "闽清",
      "zip": "0591"
    },
    {
      "phoneticize": "Mulan",
      "name": "木兰",
      "zip": "0451"
    }
  ],
  "P": [
    {
      "phoneticize": "Panjin",
      "name": "盘锦",
      "zip": "0427"
    },
    {
      "phoneticize": "Panzhihua",
      "name": "攀枝花",
      "zip": "0812"
    },
    {
      "phoneticize": "Pingdingshan",
      "name": "平顶山",
      "zip": "0375"
    },
    {
      "phoneticize": "Pingliang",
      "name": "平凉",
      "zip": "0933"
    },
    {
      "phoneticize": "Pingxiang",
      "name": "萍乡",
      "zip": "0799"
    },
    {
      "phoneticize": "Puer",
      "name": "普洱",
      "zip": "0879"
    },
    {
      "phoneticize": "Putian",
      "name": "莆田",
      "zip": "0594"
    },
    {
      "phoneticize": "Puyang",
      "name": "濮阳",
      "zip": "0393"
    },
    {
      "phoneticize": "Panan",
      "name": "磐安",
      "zip": "0579"
    },
    {
      "phoneticize": "Panshi",
      "name": "磐石",
      "zip": "0423"
    },
    {
      "phoneticize": "Peixian",
      "name": "沛县",
      "zip": "0516"
    },
    {
      "phoneticize": "Penglai",
      "name": "蓬莱",
      "zip": "0535"
    },
    {
      "phoneticize": "Pengshui",
      "name": "彭水",
      "zip": "023"
    },
    {
      "phoneticize": "Pengze",
      "name": "彭泽",
      "zip": "0792"
    },
    {
      "phoneticize": "Pengzhou",
      "name": "彭州",
      "zip": "028"
    },
    {
      "phoneticize": "Pingdu",
      "name": "平度",
      "zip": "0532"
    },
    {
      "phoneticize": "Pinghe",
      "name": "平和",
      "zip": "0596"
    },
    {
      "phoneticize": "Pinghu",
      "name": "平湖",
      "zip": "0573"
    },
    {
      "phoneticize": "Pingnan",
      "name": "屏南",
      "zip": "0593"
    },
    {
      "phoneticize": "Pingshan",
      "name": "平山",
      "zip": "0311"
    },
    {
      "phoneticize": "Pingtan",
      "name": "平潭",
      "zip": "0591"
    },
    {
      "phoneticize": "Pingyang",
      "name": "平阳",
      "zip": "0577"
    },
    {
      "phoneticize": "Pingyin",
      "name": "平阴",
      "zip": "0531"
    },
    {
      "phoneticize": "Pingyi",
      "name": "平邑",
      "zip": "0539"
    },
    {
      "phoneticize": "Pingyuan",
      "name": "平原",
      "zip": "0534"
    },
    {
      "phoneticize": "Pingyuan",
      "name": "平远",
      "zip": "0753"
    },
    {
      "phoneticize": "Pixian",
      "name": "郫县",
      "zip": "028"
    },
    {
      "phoneticize": "Pizhou",
      "name": "邳州",
      "zip": "0516"
    },
    {
      "phoneticize": "Poyang",
      "name": "鄱阳",
      "zip": "0793"
    },
    {
      "phoneticize": "Pucheng",
      "name": "浦城",
      "zip": "0599"
    },
    {
      "phoneticize": "Pujiang",
      "name": "浦江",
      "zip": "0579"
    },
    {
      "phoneticize": "Pujiang",
      "name": "蒲江",
      "zip": "028"
    },
    {
      "phoneticize": "Pulandian",
      "name": "普兰店",
      "zip": "0411"
    },
    {
      "phoneticize": "Puning",
      "name": "普宁",
      "zip": "0663"
    }
  ],
  "R": [
    {
      "phoneticize": "Rikaze",
      "name": "日喀则",
      "zip": "0892"
    },
    {
      "phoneticize": "Rizhao",
      "name": "日照",
      "zip": "0633"
    },
    {
      "phoneticize": "Raoping",
      "name": "饶平",
      "zip": "0768"
    },
    {
      "phoneticize": "Renhua",
      "name": "仁化",
      "zip": "0751"
    },
    {
      "phoneticize": "Rongan",
      "name": "融安",
      "zip": "0772"
    },
    {
      "phoneticize": "Rongchang",
      "name": "荣昌",
      "zip": "023"
    },
    {
      "phoneticize": "Rongcheng",
      "name": "荣成",
      "zip": "0631"
    },
    {
      "phoneticize": "Rongshui",
      "name": "融水",
      "zip": "0772"
    },
    {
      "phoneticize": "Rudong",
      "name": "如东",
      "zip": "0513"
    },
    {
      "phoneticize": "Rugao",
      "name": "如皋",
      "zip": "0513"
    },
    {
      "phoneticize": "Ruian",
      "name": "瑞安",
      "zip": "0577"
    },
    {
      "phoneticize": "Ruichang",
      "name": "瑞昌",
      "zip": "0792"
    },
    {
      "phoneticize": "Ruijin",
      "name": "瑞金",
      "zip": "0797"
    },
    {
      "phoneticize": "Rushan",
      "name": "乳山",
      "zip": "0631"
    },
    {
      "phoneticize": "Ruyang",
      "name": "汝阳",
      "zip": "0379"
    },
    {
      "phoneticize": "Ruyuan",
      "name": "乳源",
      "zip": "0751"
    }
  ]
}
